[{"OBJECT_NAME":"CHUANGXIN 1 (CX-1)","OBJECT_ID":"2003-049B","EPOCH":"2026-03-09T23:37:11.328096","MEAN_MOTION":14.48529163,"ECCENTRICITY":0.00134088,"INCLINATION":98.5179,"RA_OF_ASC_NODE":327.2835,"ARG_OF_PERICENTER":121.0909,"MEAN_ANOMALY":239.1602,"EPHEMERIS_TYPE":0,"CLASSIFICATION_TYPE":"U","NORAD_CAT_ID":28058,"ELEMENT_SET_NO":999,"REV_AT_EPOCH":18191,"BSTAR":9.8543692e-5,"MEAN_MOTION_DOT":3.25e-6,"MEAN_MOTION_DDOT":0},{"OBJECT_NAME":"CZ-6A DEB","OBJECT_ID":"2022-151QS","EPOCH":"2026-03-09T09:53:43.621152","MEAN_MOTION":14.46974359,"ECCENTRICITY":0.0081997,"INCLINATION":98.7191,"RA_OF_ASC_NODE":130.5753,"ARG_OF_PERICENTER":223.81,"MEAN_ANOMALY":135.6568,"EPHEMERIS_TYPE":0,"CLASSIFICATION_TYPE":"U","NORAD_CAT_ID":54905,"ELEMENT_SET_NO":999,"REV_AT_EPOCH":17205,"BSTAR":0.00062796863,"MEAN_MOTION_DOT":2.33e-5,"MEAN_MOTION_DDOT":0}]
